{"type": "FeatureCollection", "features": [ {"type": "Feature", "properties": {"norad_id": 39778, "name": "IRIDIUM 33 DEB", "group": "iridium-33-debris", "lat": 9.415367092711357, "lon": -135.22509376254456, "alt_km": 716.2250376862175, "timestamp": "2025-12-07T18:50:17.100888+00:00", "meta": {"OBJECT_NAME": "IRIDIUM 33 DEB", "OBJECT_ID": "1997-051AAK", "EPOCH": "2025-12-06T10:40:47.981856", "MEAN_MOTION": 14.54195106, "ECCENTRICITY": 0.000862, "INCLINATION": 86.3781, "RA_OF_ASC_NODE": 45.9581, "ARG_OF_PERICENTER": 60.4132, "MEAN_ANOMALY": 299.7933, "EPHEMERIS_TYPE": 0, "CLASSIFICATION_TYPE": "U", "NORAD_CAT_ID": 39778, "ELEMENT_SET_NO": 999, "REV_AT_EPOCH": 60601, "BSTAR": 0.0017130397, "MEAN_MOTION_DOT": 7.274e-05, "MEAN_MOTION_DDOT": 0}, "tle": {"line1": "1 39778U 97051AAK 25340.44499979  .00007274  00000+0  17130-2 0  9998", "line2": "2 39778  86.3781  45.9581 0008620  60.4132 299.7933 14.54195106606014"}}, "geometry": {"type": "Point", "coordinates": [-135.22509376254456, 9.415367092711357]}}, {"type": "Feature", "properties": {"norad_id": 39781, "name": "IRIDIUM 33 DEB", "group": "iridium-33-debris", "lat": 14.979262126744038, "lon": 79.04645817101003, "alt_km": 895.7086726440857, "timestamp": "2025-12-07T18:50:17.100898+00:00", "meta": {"OBJECT_NAME": "IRIDIUM 33 DEB", "OBJECT_ID": "1997-051AAN", "EPOCH": "2025-12-07T01:13:23.280096", "MEAN_MOTION": 14.20376267, "ECCENTRICITY": 0.01796039, "INCLINATION": 86.3686, "RA_OF_ASC_NODE": 260.3225, "ARG_OF_PERICENTER": 291.285, "MEAN_ANOMALY": 84.633, "EPHEMERIS_TYPE": 0, "CLASSIFICATION_TYPE": "U", "NORAD_CAT_ID": 39781, "ELEMENT_SET_NO": 999, "REV_AT_EPOCH": 8026, "BSTAR": 0.0085418248, "MEAN_MOTION_DOT": 0.00021578, "MEAN_MOTION_DDOT": 0}, "tle": {"line1": "1 39781U 97051AAN 25341.05096389  .00021578  00000+0  85418-2 0  9995", "line2": "2 39781  86.3686 260.3225 0179603 291.2850  84.6330 14.20376267 80268"}}, "geometry": {"type": "Point", "coordinates": [79.04645817101003, 14.979262126744038]}}, {"type": "Feature", "properties": {"norad_id": 39783, "name": "IRIDIUM 33 DEB", "group": "iridium-33-debris", "lat": -71.48291483156292, "lon": -113.79635323040596, "alt_km": 487.4020592151501, "timestamp": "2025-12-07T18:50:17.100909+00:00", "meta": {"OBJECT_NAME": "IRIDIUM 33 DEB", "OBJECT_ID": "1997-051AAQ", "EPOCH": "2025-11-16T15:05:40.850592", "MEAN_MOTION": 15.19327111, "ECCENTRICITY": 0.00057535, "INCLINATION": 86.1306, "RA_OF_ASC_NODE": 268.8004, "ARG_OF_PERICENTER": 179.9151, "MEAN_ANOMALY": 1.8316, "EPHEMERIS_TYPE": 0, "CLASSIFICATION_TYPE": "U", "NORAD_CAT_ID": 39783, "ELEMENT_SET_NO": 999, "REV_AT_EPOCH": 60401, "BSTAR": 0.010398125, "MEAN_MOTION_DOT": 0.00226179, "MEAN_MOTION_DDOT": 0}, "tle": {"line1": "1 39783U 97051AAQ 25320.62894503  .00226179  00000+0  10398-1 0  9999", "line2": "2 39783  86.1306 268.8004 0005753 179.9151   1.8316 15.19327111604018"}}, "geometry": {"type": "Point", "coordinates": [-113.79635323040596, -71.48291483156292]}}, {"type": "Feature", "properties": {"norad_id": 40996, "name": "IRIDIUM 33 DEB", "group": "iridium-33-debris", "lat": 69.04597097333259, "lon": 13.315145852394412, "alt_km": 565.4203472048694, "timestamp": "2025-12-07T18:50:17.100919+00:00", "meta": {"OBJECT_NAME": "IRIDIUM 33 DEB", "OBJECT_ID": "1997-051ABJ", "EPOCH": "2025-12-02T08:31:11.979264", "MEAN_MOTION": 14.95250831, "ECCENTRICITY": 0.00120962, "INCLINATION": 86.3524, "RA_OF_ASC_NODE": 6.2584, "ARG_OF_PERICENTER": 92.2467, "MEAN_ANOMALY": 284.2756, "EPHEMERIS_TYPE": 0, "CLASSIFICATION_TYPE": "U", "NORAD_CAT_ID": 40996, "ELEMENT_SET_NO": 999, "REV_AT_EPOCH": 62333, "BSTAR": 0.0031243939, "MEAN_MOTION_DOT": 0.0003457, "MEAN_MOTION_DDOT": 0}, "tle": {"line1": "1 40996U 97051ABJ 25336.35499976  .00034570  00000+0  31244-2 0  9995", "line2": "2 40996  86.3524   6.2584 0012096  92.2467 284.2756 14.95250831623330"}}, "geometry": {"type": "Point", "coordinates": [13.315145852394412, 69.04597097333259]}}, {"type": "Feature", "properties": {"norad_id": 40998, "name": "IRIDIUM 33 DEB", "group": "iridium-33-debris", "lat": -7.285792693280116, "lon": 55.30967775852717, "alt_km": 747.1305445543785, "timestamp": "2025-12-07T18:50:17.100929+00:00", "meta": {"OBJECT_NAME": "IRIDIUM 33 DEB", "OBJECT_ID": "1997-051ABL", "EPOCH": "2025-12-03T12:06:12.154176", "MEAN_MOTION": 14.45043538, "ECCENTRICITY": 0.00095708, "INCLINATION": 86.3836, "RA_OF_ASC_NODE": 57.6004, "ARG_OF_PERICENTER": 108.6038, "MEAN_ANOMALY": 309.9308, "EPHEMERIS_TYPE": 0, "CLASSIFICATION_TYPE": "U", "NORAD_CAT_ID": 40998, "ELEMENT_SET_NO": 999, "REV_AT_EPOCH": 6548, "BSTAR": 0.00081638604, "MEAN_MOTION_DOT": 2.87e-05, "MEAN_MOTION_DDOT": 0}, "tle": {"line1": "1 40998U 97051ABL 25337.50430734  .00002870  00000+0  81639-3 0  9994", "line2": "2 40998  86.3836  57.6004 0009570 108.6038 309.9308 14.45043538 65487"}}, "geometry": {"type": "Point", "coordinates": [55.30967775852717, -7.285792693280116]}}, {"type": "Feature", "properties": {"norad_id": 46435, "name": "IRIDIUM 33 DEB", "group": "iridium-33-debris", "lat": 85.62746552084803, "lon": -42.129771128269624, "alt_km": 919.7807524988657, "timestamp": "2025-12-07T18:50:17.100939+00:00", "meta": {"OBJECT_NAME": "IRIDIUM 33 DEB", "OBJECT_ID": "1997-051ABN", "EPOCH": "2025-12-05T21:11:31.918848", "MEAN_MOTION": 14.31677578, "ECCENTRICITY": 0.02114169, "INCLINATION": 86.2838, "RA_OF_ASC_NODE": 196.8975, "ARG_OF_PERICENTER": 298.5374, "MEAN_ANOMALY": 75.9758, "EPHEMERIS_TYPE": 0, "CLASSIFICATION_TYPE": "U", "NORAD_CAT_ID": 46435, "ELEMENT_SET_NO": 999, "REV_AT_EPOCH": 7818, "BSTAR": 0.013325528, "MEAN_MOTION_DOT": 0.00045688, "MEAN_MOTION_DDOT": 0}, "tle": {"line1": "1 46435U 97051ABN 25339.88300832  .00045688  00000+0  13326-1 0  9994", "line2": "2 46435  86.2838 196.8975 0211416 298.5374  75.9758 14.31677578 78181"}}, "geometry": {"type": "Point", "coordinates": [-42.129771128269624, 85.62746552084803]}}, {"type": "Feature", "properties": {"norad_id": 46734, "name": "IRIDIUM 33 DEB", "group": "iridium-33-debris", "lat": 70.06978278325906, "lon": 174.6593947415727, "alt_km": 758.468308390241, "timestamp": "2025-12-07T18:50:17.100949+00:00", "meta": {"OBJECT_NAME": "IRIDIUM 33 DEB", "OBJECT_ID": "1997-051ABR", "EPOCH": "2025-12-03T20:12:35.443296", "MEAN_MOTION": 14.41795233, "ECCENTRICITY": 0.00394426, "INCLINATION": 86.2642, "RA_OF_ASC_NODE": 6.7702, "ARG_OF_PERICENTER": 5.4679, "MEAN_ANOMALY": 171.2392, "EPHEMERIS_TYPE": 0, "CLASSIFICATION_TYPE": "U", "NORAD_CAT_ID": 46734, "ELEMENT_SET_NO": 999, "REV_AT_EPOCH": 62882, "BSTAR": 0.0014594249, "MEAN_MOTION_DOT": 4.83e-05, "MEAN_MOTION_DDOT": 0}, "tle": {"line1": "1 46734U 97051ABR 25337.84207689  .00004830  00000+0  14594-2 0  9999", "line2": "2 46734  86.2642   6.7702 0039442   5.4679 171.2392 14.41795233628829"}}, "geometry": {"type": "Point", "coordinates": [174.6593947415727, 70.06978278325906]}}, {"type": "Feature", "properties": {"norad_id": 46965, "name": "IRIDIUM 33 DEB", "group": "iridium-33-debris", "lat": -80.57986977769305, "lon": -39.831332625502576, "alt_km": 695.7224962644113, "timestamp": "2025-12-07T18:50:17.100959+00:00", "meta": {"OBJECT_NAME": "IRIDIUM 33 DEB", "OBJECT_ID": "1997-051ABX", "EPOCH": "2025-12-06T23:36:16.318080", "MEAN_MOTION": 14.60228629, "ECCENTRICITY": 0.00188578, "INCLINATION": 86.335, "RA_OF_ASC_NODE": 343.2503, "ARG_OF_PERICENTER": 353.5175, "MEAN_ANOMALY": 35.294, "EPHEMERIS_TYPE": 0, "CLASSIFICATION_TYPE": "U", "NORAD_CAT_ID": 46965, "ELEMENT_SET_NO": 999, "REV_AT_EPOCH": 62184, "BSTAR": 0.0013461013, "MEAN_MOTION_DOT": 6.528e-05, "MEAN_MOTION_DDOT": 0}, "tle": {"line1": "1 46965U 97051ABX 25340.98352220  .00006528  00000+0  13461-2 0  9994", "line2": "2 46965  86.3350 343.2503 0018857 353.5175  35.2940 14.60228629621849"}}, "geometry": {"type": "Point", "coordinates": [-39.831332625502576, -80.57986977769305]}}, {"type": "Feature", "properties": {"norad_id": 46971, "name": "IRIDIUM 33 DEB", "group": "iridium-33-debris", "lat": 49.854950658813785, "lon": -20.200996503167158, "alt_km": 568.6399025500505, "timestamp": "2025-12-07T18:50:17.100970+00:00", "meta": {"OBJECT_NAME": "IRIDIUM 33 DEB", "OBJECT_ID": "1997-051ACD", "EPOCH": "2025-11-30T18:57:44.502624", "MEAN_MOTION": 14.96904917, "ECCENTRICITY": 0.00065248, "INCLINATION": 86.3392, "RA_OF_ASC_NODE": 338.7285, "ARG_OF_PERICENTER": 8.9727, "MEAN_ANOMALY": 165.6369, "EPHEMERIS_TYPE": 0, "CLASSIFICATION_TYPE": "U", "NORAD_CAT_ID": 46971, "ELEMENT_SET_NO": 999, "REV_AT_EPOCH": 64051, "BSTAR": 0.0032009998, "MEAN_MOTION_DOT": 0.00036919, "MEAN_MOTION_DDOT": 0}, "tle": {"line1": "1 46971U 97051ACD 25334.79009841  .00036919  00000+0  32010-2 0  9999", "line2": "2 46971  86.3392 338.7285 0006524   8.9727 165.6369 14.96904917640518"}}, "geometry": {"type": "Point", "coordinates": [-20.200996503167158, 49.854950658813785]}}, {"type": "Feature", "properties": {"norad_id": 46974, "name": "IRIDIUM 33 DEB", "group": "iridium-33-debris", "lat": -79.13226015663861, "lon": 87.72675552411476, "alt_km": 736.8542918982557, "timestamp": "2025-12-07T18:50:17.100980+00:00", "meta": {"OBJECT_NAME": "IRIDIUM 33 DEB", "OBJECT_ID": "1997-051ACG", "EPOCH": "2025-12-03T15:25:18.733152", "MEAN_MOTION": 14.43893104, "ECCENTRICITY": 0.00960014, "INCLINATION": 86.2979, "RA_OF_ASC_NODE": 109.2433, "ARG_OF_PERICENTER": 216.6177, "MEAN_ANOMALY": 142.8439, "EPHEMERIS_TYPE": 0, "CLASSIFICATION_TYPE": "U", "NORAD_CAT_ID": 46974, "ELEMENT_SET_NO": 999, "REV_AT_EPOCH": 57377, "BSTAR": 0.0066247967, "MEAN_MOTION_DOT": 0.0002397, "MEAN_MOTION_DDOT": 0}, "tle": {"line1": "1 46974U 97051ACG 25337.64257793  .00023970  00000+0  66248-2 0  9993", "line2": "2 46974  86.2979 109.2433 0096001 216.6177 142.8439 14.43893104573778"}}, "geometry": {"type": "Point", "coordinates": [87.72675552411476, -79.13226015663861]}}]}